[{"OBJECT_NAME":"BRO-13","OBJECT_ID":"2024-043K","EPOCH":"2026-03-09T22:19:47.829216","MEAN_MOTION":14.96296765,"ECCENTRICITY":0.00083947,"INCLINATION":97.8333,"RA_OF_ASC_NODE":199.7446,"ARG_OF_PERICENTER":338.0901,"MEAN_ANOMALY":21.996,"EPHEMERIS_TYPE":0,"CLASSIFICATION_TYPE":"U","NORAD_CAT_ID":59107,"ELEMENT_SET_NO":999,"REV_AT_EPOCH":10977,"BSTAR":0.00013050562,"MEAN_MOTION_DOT":1.416e-5,"MEAN_MOTION_DDOT":0},{"OBJECT_NAME":"STARLINK-32925","OBJECT_ID":"2025-037Q","EPOCH":"2026-03-09T22:33:32.029920","MEAN_MOTION":14.98349057,"ECCENTRICITY":0.00027736,"INCLINATION":70.0031,"RA_OF_ASC_NODE":353.6578,"ARG_OF_PERICENTER":277.0529,"MEAN_ANOMALY":83.0315,"EPHEMERIS_TYPE":0,"CLASSIFICATION_TYPE":"U","NORAD_CAT_ID":63091,"ELEMENT_SET_NO":999,"REV_AT_EPOCH":5858,"BSTAR":0.0010114235,"MEAN_MOTION_DOT":0.00012002,"MEAN_MOTION_DDOT":0}]
